CALSPHERE 1             
1 00900U 64063C   23042.84685865  .00001288  00000+0  13573-2 0  9998
2 00900  90.1806  45.3960 0027772  25.7816  47.8681 13.74094650903539
CALSPHERE 2             
1 00902U 64063E   23042.76625289  .00000063  00000+0  81356-4 0  9991
2 00902  90.1937  48.6448 0018760 167.2321   6.3733 13.52736042691124
LCS 1                   
1 01361U 65034C   23042.84077137  .00000021  00000+0  16456-2 0  9993
2 01361  32.1361 196.9095 0010230   6.6252 353.4379  9.89302837 88936
TEMPSAT 1               
1 01512U 65065E   23042.74575995  .00000072  00000+0  12444-3 0  9999
2 01512  89.9231 216.8172 0071728  78.9390 292.7445 13.33468564797268
CALSPHERE 4A            
1 01520U 65065H   23043.17103797  .00000185  00000+0  34132-3 0  9996
2 01520  89.9811 129.8555 0067238 308.2050  79.8998 13.35935124800076
OPS 5712 (P/L 160)      
1 02826U 67053A   23042.91514559  .00008480  00000+0  21008-2 0  9991
2 02826  69.9273  86.7566 0006561 328.9860  31.0886 14.52191118887976
LES-5                   
1 02866U 67066E   23042.88503772 -.00000105  00000+0  00000+0 0  9993
2 02866   0.9114 217.8346 0056184  70.7061 246.3120  1.09426115117663
SURCAL 159              
1 02872U 67053F   23042.88066203  .00000262  00000+0  21845-3 0  9996
2 02872  69.9742 109.3957 0009755 268.1783  91.8207 13.98978397839352
OPS 5712 (P/L 153)      
1 02874U 67053H   23042.52651394  .00000165  00000+0  15802-3 0  9998
2 02874  69.9725 213.0490 0008622 323.2055  36.8458 13.96447553836208
SURCAL 150B             
1 02909U 67053J   23042.82898274  .00016076  00000+0  28878-2 0  9994
2 02909  69.9463  64.2998 0004264 321.5171  38.5667 14.66730846898671
RIGIDSPHERE 2 (LCS 4)   
1 05398U 71067E   23042.83480056  .00002259  00000+0  77795-3 0  9996
2 05398  87.6238 316.9495 0061461 317.3499  42.2934 14.34566884698570
OSCAR 7 (AO-7)          
1 07530U 74089B   23042.89356023 -.00000024  00000+0  13719-3 0  9990
2 07530 101.9364  28.7791 0012029 304.3062  84.9467 12.53661015207475
STARLETTE               
1 07646U 75010A   23041.82561401 -.00000127  00000+0  12632-4 0  9991
2 07646  49.8224 249.3663 0205632 344.9896  14.4954 13.82316627425432
LAGEOS 1                
1 08820U 76039A   23042.90627814  .00000003  00000+0  00000+0 0  9992
2 08820 109.8358 121.0413 0045099 204.2308 353.9111  6.38664909835147
PHASE 3B (AO-10)        
1 14129U 83058B   23042.16943949 -.00000019  00000+0  00000+0 0  9996
2 14129  26.8913  57.0591 6035237 147.1367 271.7930  2.05868537270327